[{"OBJECT_NAME":"IRIDIUM 163","OBJECT_ID":"2018-061G","EPOCH":"2026-03-09T13:59:42.401760","MEAN_MOTION":14.34217733,"ECCENTRICITY":0.0002172,"INCLINATION":86.3916,"RA_OF_ASC_NODE":98.3882,"ARG_OF_PERICENTER":91.0803,"MEAN_ANOMALY":269.0641,"EPHEMERIS_TYPE":0,"CLASSIFICATION_TYPE":"U","NORAD_CAT_ID":43575,"ELEMENT_SET_NO":999,"REV_AT_EPOCH":39910,"BSTAR":2.0406e-5,"MEAN_MOTION_DOT":7.7e-7,"MEAN_MOTION_DDOT":0},{"OBJECT_NAME":"COSMOS 1269","OBJECT_ID":"1981-041A","EPOCH":"2026-03-09T17:22:04.606752","MEAN_MOTION":14.3310322,"ECCENTRICITY":0.00086332,"INCLINATION":74.055,"RA_OF_ASC_NODE":187.1532,"ARG_OF_PERICENTER":78.255,"MEAN_ANOMALY":281.9569,"EPHEMERIS_TYPE":0,"CLASSIFICATION_TYPE":"U","NORAD_CAT_ID":12442,"ELEMENT_SET_NO":999,"REV_AT_EPOCH":34173,"BSTAR":8.5332573e-5,"MEAN_MOTION_DOT":2.08e-6,"MEAN_MOTION_DDOT":0}]
